{
    "links": {
        "self": "http://www.neowsapp.com/rest/v1/neo/3632081?api_key=iIulBulltgU6a56xZRHN4H3l9WmuAYTsLGpBGhQ2"
    },
    "id": "3632081",
    "neo_reference_id": "3632081",
    "name": "(2013 EH68)",
    "designation": "2013 EH68",
    "nasa_jpl_url": "http://ssd.jpl.nasa.gov/sbdb.cgi?sstr=3632081",
    "absolute_magnitude_h": 22.8,
    "estimated_diameter": {
        "kilometers": {
            "estimated_diameter_min": 0.0732073989,
            "estimated_diameter_max": 0.1636967205
        },
        "meters": {
            "estimated_diameter_min": 73.2073989347,
            "estimated_diameter_max": 163.696720474
        },
        "miles": {
            "estimated_diameter_min": 0.0454889547,
            "estimated_diameter_max": 0.1017163949
        },
        "feet": {
            "estimated_diameter_min": 240.181762721,
            "estimated_diameter_max": 537.0627483999
        }
    },
    "is_potentially_hazardous_asteroid": false,
    "close_approach_data": [
        {
            "close_approach_date": "1927-03-23",
            "close_approach_date_full": "1927-Mar-23 01:39",
            "epoch_date_close_approach": -1349994060000,
            "relative_velocity": {
                "kilometers_per_second": "31.5713715702",
                "kilometers_per_hour": "113656.9376527924",
                "miles_per_hour": "70622.0010654253"
            },
            "miss_distance": {
                "astronomical": "0.2882457882",
                "lunar": "112.1276116098",
                "kilometers": "43120955.951191134",
                "miles": "26794119.5682362892"
            },
            "orbiting_body": "Earth"
        },
        {
            "close_approach_date": "2009-07-14",
            "close_approach_date_full": "2009-Jul-14 19:19",
            "epoch_date_close_approach": 1247599140000,
            "relative_velocity": {
                "kilometers_per_second": "25.9519523373",
                "kilometers_per_hour": "93427.0284141914",
                "miles_per_hour": "58051.9221832513"
            },
            "miss_distance": {
                "astronomical": "0.0993389457",
                "lunar": "38.6428498773",
                "kilometers": "14860894.684765659",
                "miles": "9234131.7647337342"
            },
            "orbiting_body": "Venus"
        },
        {
            "close_approach_date": "2013-03-05",
            "close_approach_date_full": "2013-Mar-05 03:58",
            "epoch_date_close_approach": 1362455880000,
            "relative_velocity": {
                "kilometers_per_second": "20.9795143219",
                "kilometers_per_hour": "75526.2515588486",
                "miles_per_hour": "46929.0755866635"
            },
            "miss_distance": {
                "astronomical": "0.0695973067",
                "lunar": "27.0733523063",
                "kilometers": "10411608.840056729",
                "miles": "6469473.7397277002"
            },
            "orbiting_body": "Earth"
        },
        {
            "close_approach_date": "2037-04-02",
            "close_approach_date_full": "2037-Apr-02 10:10",
            "epoch_date_close_approach": 2122279800000,
            "relative_velocity": {
                "kilometers_per_second": "37.496097778",
                "kilometers_per_hour": "134985.9520007424",
                "miles_per_hour": "83875.0211195724"
            },
            "miss_distance": {
                "astronomical": "0.4830841229",
                "lunar": "187.9197238081",
                "kilometers": "72268355.816658223",
                "miles": "44905474.0099725574"
            },
            "orbiting_body": "Earth"
        }
    ],
    "orbital_data": {
        "orbit_id": "16",
        "orbit_determination_date": "2017-04-06 08:46:29",
        "first_observation_date": "2013-03-13",
        "last_observation_date": "2013-04-10",
        "data_arc_in_days": 28,
        "observations_used": 62,
        "orbit_uncertainty": "7",
        "minimum_orbit_intersection": ".0106647",
        "jupiter_tisserand_invariant": "3.133",
        "epoch_osculation": "2459000.5",
        "eccentricity": ".7657707585332382",
        "semi_major_axis": "2.276911969247994",
        "inclination": "5.052852888287252",
        "ascending_node_longitude": "356.0231240346923",
        "orbital_period": "1254.925045736147",
        "perihelion_distance": ".5333193634435486",
        "perihelion_argument": "79.0801897619009",
        "aphelion_distance": "4.020504575052439",
        "perihelion_time": "2458826.516445284145",
        "mean_anomaly": "49.91061411238819",
        "mean_motion": ".2868697227959313",
        "equinox": "J2000",
        "orbit_class": {
            "orbit_class_type": "APO",
            "orbit_class_description": "Near-Earth asteroid orbits which cross the Earth’s orbit similar to that of 1862 Apollo",
            "orbit_class_range": "a (semi-major axis) > 1.0 AU; q (perihelion) < 1.017 AU"
        }
    },
    "is_sentry_object": false
}